ONEWEB-0156             
1 48052U 21025L   24255.79847179 -.00000556  00000+0 -15578-2 0  9994
2 48052  87.8851  88.2382 0001696  85.2747 274.8576 13.13468778169119
ONEWEB-0161             
1 48053U 21025M   24255.77150044  .00000237  00000+0  61477-3 0  9995
2 48053  87.8856  88.2533 0001862  87.7024 272.4319 13.13466688169042
ONEWEB-0158             
1 48054U 21025N   24255.80959358  .00001779  00000+0  48344-2 0  9994
2 48054  87.8856  88.2339 0001645  83.7189 276.4128 13.13470574169179
ONEWEB-0157             
1 48055U 21025P   24255.90957980  .00000268  00000+0  70004-3 0  9996
2 48055  87.8851  88.2279 0001823  81.7905 278.3430 13.13470626169120
ONEWEB-0162             
1 48056U 21025Q   24255.79689949 -.00000254  00000+0 -73142-3 0  9994
2 48056  87.8849  88.2449 0001669  83.5416 276.5903 13.13468018169084
ONEWEB-0155             
1 48057U 21025R   24255.81751335 -.00000433  00000+0 -12194-2 0  9995
2 48057  87.8849  88.2525 0001803  90.8785 269.2551 13.13471581169223
ONEWEB-0149             
1 48058U 21025S   24255.91434989  .00000972  00000+0  26257-2 0  9991
2 48058  87.8844  88.2289 0001682  76.3443 283.7873 13.13467923169044
ONEWEB-0148             
1 48059U 21025T   24255.80324091 -.00000168  00000+0 -49437-3 0  9997
2 48059  87.8852  88.2645 0002033  69.1174 291.0173 13.13472115169158
ONEWEB-0160             
1 48060U 21025U   24255.89529987  .00000124  00000+0  30395-3 0  9992
2 48060  87.8853  88.2423 0000787 100.4953 259.6265 13.13469492169115
ONEWEB-0163             
1 48061U 21025V   24255.80483997 -.00000190  00000+0 -55637-3 0  9995
2 48061  87.8851  88.2502 0001995  85.1694 274.9663 13.13469913169227
ONEWEB-0159             
1 48062U 21025W   24255.79371335 -.00000138  00000+0 -41323-3 0  9995
2 48062  87.8850  88.2351 0001854  81.5166 278.6173 13.13472461169147
ONEWEB-0164             
1 48063U 21025X   24255.77626156  .00000145  00000+0  36251-3 0  9998
2 48063  87.8851  88.2493 0001661  89.4064 270.7255 13.13467438169126
ONEWEB-0167             
1 48064U 21025Y   24255.57710061 -.00000167  00000+0 -49127-3 0  9998
2 48064  87.8851  88.3021 0001939  84.8204 275.3146 13.13468876169080
ONEWEB-0166             
1 48065U 21025Z   24255.90321278  .00000377  00000+0  99710-3 0  9998
2 48065  87.8847  88.2168 0001714  78.9332 281.1990 13.13472802169204
ONEWEB-0151             
1 48066U 21025AA  24255.90479820  .00000143  00000+0  35797-3 0  9992
2 48066  87.8850  88.2320 0001657  91.7626 268.3693 13.13471553169146
ONEWEB-0170             
1 48067U 21025AB  24255.91275973  .00000326  00000+0  85687-3 0  9993
2 48067  87.8851  88.2334 0001429 108.0440 252.0845 13.13467952169109
ONEWEB-0168             
1 48068U 21025AC  24255.89847580  .00000263  00000+0  68415-3 0  9990
2 48068  87.8853  88.2086 0001746  84.6483 275.4845 13.13469617169114
ONEWEB-0173             
1 48069U 21025AD  24255.81435865  .00000017  00000+0  12445-4 0  9992
2 48069  87.8853  88.2350 0002121  92.5110 267.6262 13.13469066169341
ONEWEB-0171             
1 48070U 21025AE  24255.77467955  .00000161  00000+0  40599-3 0  9994
2 48070  87.8855  88.2792 0001725  90.3875 269.7452 13.13468372169150
ONEWEB-0172             
1 48071U 21025AF  24255.90640532  .00000317  00000+0  83339-3 0  9996
2 48071  87.8854  88.2191 0001815  91.2751 268.8586 13.13468075170066
ONEWEB-0174             
1 48072U 21025AG  24255.81277333 -.00000005  00000+0 -49465-4 0  9991
2 48072  87.8853  88.2520 0001732  81.5591 278.5734 13.13469513169377
ONEWEB-0175             
1 48073U 21025AH  24255.76516447  .00000339  00000+0  89253-3 0  9994
2 48073  87.8848  88.2451 0001650  99.2696 260.8619 13.13468064169024
ONEWEB-0177             
1 48074U 21025AJ  24255.77784994  .00000092  00000+0  21609-3 0  9997
2 48074  87.8850  88.2517 0002075  84.5696 275.5670 13.13467336169212
ONEWEB-0178             
1 48075U 21025AK  24255.79544638 -.00000148  00000+0 -44035-3 0  9991
2 48075  87.8856  88.2718 0001884  85.4997 274.6347 13.13470615169263
ONEWEB-0108             
1 48076U 21025AL  24255.90799806  .00000313  00000+0  82125-3 0  9998
2 48076  87.8848  88.2226 0001538  79.8900 280.2402 13.13468488169200
ONEWEB-0169             
1 48077U 21025AM  24255.55885763 -.00000152  00000+0 -45143-3 0  9990
2 48077  87.8851  88.3046 0001518  79.1768 280.9532 13.13459747167813
ONEWEB-0176             
1 48210U 21031A   24255.90759702  .00000193  00000+0  48481-3 0  9999
2 48210  87.8944  57.6264 0001720  93.6157 266.5170 13.14499794163804
ONEWEB-0184             
1 48211U 21031B   24255.88064713 -.00000090  00000+0 -27627-3 0  9995
2 48211  87.8938  57.6120 0002229 119.3504 240.7849 13.14500744163777
ONEWEB-0179             
1 48212U 21031C   24255.92663109  .00000006  00000+0 -18042-4 0  9993
2 48212  87.8944  57.6092 0001817  90.8532 269.2806 13.14501394163826
ONEWEB-0180             
1 48213U 21031D   24255.88381953  .00000018  00000+0  14271-4 0  9995
2 48213  87.8938  57.6132 0001932  90.8415 269.2937 13.14502216163709
ONEWEB-0218             
1 48214U 21031E   24255.90601942  .00000252  00000+0  64553-3 0  9999
2 48214  87.8940  57.6106 0002514 113.5746 246.5648 13.14502325163866
ONEWEB-0209             
1 48215U 21031F   24255.89492002  .00000183  00000+0  45889-3 0  9997
2 48215  87.8942  57.6487 0001901  89.0811 271.0536 13.14501742163861
ONEWEB-0198             
1 48216U 21031G   24255.87903605 -.00001777  00000+0 -48282-2 0  9993
2 48216  87.8955  57.6553 0002130  97.2097 262.9275 13.14509869163971
ONEWEB-0189             
1 48217U 21031H   24255.89174576  .00000105  00000+0  24762-3 0  9993
2 48217  87.8940  57.6286 0002200  97.7788 262.3592 13.14500113163710
ONEWEB-0196             
1 48218U 21031J   24255.86952236 -.00000485  00000+0 -13423-2 0  9992
2 48218  87.8942  57.6385 0001751  94.7455 265.3875 13.14501181163714
ONEWEB-0183             
1 48219U 21031K   24255.84417166  .00000077  00000+0  17370-3 0  9990
2 48219  87.8945  57.6593 0001771  87.3398 272.7935 13.14501447163809
ONEWEB-0185             
1 48220U 21031L   24255.87034629  .00002726  00000+0  73165-2 0  9990
2 48220  87.8950  57.6264 0001728  84.4416 275.6911 13.14496096163734
ONEWEB-0187             
1 48221U 21031M   24255.91633066  .00000143  00000+0  35034-3 0  9991
2 48221  87.8944  57.6502 0001796  89.0114 271.1222 13.14501660163756
ONEWEB-0192             
1 48222U 21031N   24255.89650444  .00000166  00000+0  41353-3 0  9994
2 48222  87.8942  57.6516 0001775  96.3460 263.7872 13.14501471163660
ONEWEB-0219             
1 48223U 21031P   24255.87587447 -.00000139  00000+0 -41025-3 0  9993
2 48223  87.8942  57.6294 0001878  89.7527 270.3818 13.14505502163863
ONEWEB-0202             
1 48224U 21031Q   24255.85685880 -.00000203  00000+0 -58250-3 0  9992
2 48224  87.8942  57.6514 0002475 105.0815 255.0588 13.14501213163842
ONEWEB-0204             
1 48225U 21031R   24255.89095110  .00000097  00000+0  22825-3 0  9996
2 48225  87.8940  57.6567 0001551  80.5047 279.6258 13.14500643163748
ONEWEB-0205             
1 48226U 21031S   24255.86635124 -.00000502  00000+0 -13889-2 0  9991
2 48226  87.8941  57.6330 0001896  90.8818 269.2529 13.14501202163759
ONEWEB-0206             
1 48227U 21031T   24255.91551849  .00000144  00000+0  35259-3 0  9995
2 48227  87.8940  57.6104 0001907  87.1399 272.9948 13.14499473163712
ONEWEB-0182             
1 48228U 21031U   24255.91074842 -.00000220  00000+0 -62745-3 0  9996
2 48228  87.8944  57.6423 0001592  86.9729 273.1583 13.14502667163926
ONEWEB-0186             
1 48229U 21031V   24255.84574276  .00000012  00000+0 -22536-5 0  9999
2 48229  87.8945  57.6185 0001773  93.9469 266.1864 13.14499225163865
ONEWEB-0181             
1 48230U 21031W   24255.89966848  .00000190  00000+0  47737-3 0  9990
2 48230  87.8942  57.6778 0001813  96.0356 264.0980 13.14500047163722
ONEWEB-0188             
1 48231U 21031X   24255.86161372 -.00000191  00000+0 -55009-3 0  9991
2 48231  87.8942  57.6800 0001757  91.3144 268.8187 13.14502908163627
ONEWEB-0220             
1 48232U 21031Y   24255.74901611  .00000284  00000+0  73235-3 0  9999
2 48232  87.8934  57.6620 0002027  86.7228 273.4133 13.14500959163875
ONEWEB-0165             
1 48233U 21031Z   24255.85366933 -.00000116  00000+0 -34641-3 0  9998
2 48233  87.8944  57.6635 0001860  92.9793 267.1549 13.14499258163840
ONEWEB-0199             
1 48234U 21031AA  24255.91394102  .00000136  00000+0  33112-3 0  9997
2 48234  87.8943  57.6198 0001499  96.8107 263.3193 13.14500760163758
ONEWEB-0203             
1 48235U 21031AB  24255.90442173  .00000208  00000+0  52627-3 0  9991
2 48235  87.8940  57.6234 0001638 108.5974 251.5333 13.14499691163761
ONEWEB-0197             
1 48236U 21031AC  24255.87984406 -.00000088  00000+0 -27321-3 0  9999
2 48236  87.8942  57.6375 0001605  81.6861 278.4450 13.14499904163675
ONEWEB-0194             
1 48237U 21031AD  24255.85844577 -.00000175  00000+0 -50599-3 0  9992
2 48237  87.8943  57.6355 0001536 100.3224 259.8079 13.14500642163841
ONEWEB-0193             
1 48238U 21031AE  24255.87429612 -.00000153  00000+0 -44813-3 0  9992
2 48238  87.8943  57.6405 0001783  97.3454 262.7878 13.14500753163799
ONEWEB-0191             
1 48239U 21031AF  24255.88539033  .00000020  00000+0  20609-4 0  9992
2 48239  87.8937  57.6190 0001750  96.2471 263.8858 13.14503751163651
ONEWEB-0195             
1 48240U 21031AG  24255.86241127 -.00000176  00000+0 -50936-3 0  9995
2 48240  87.8941  57.6227 0002115  96.9661 263.1709 13.14500245163634
ONEWEB-0201             
1 48241U 21031AH  24255.85130108 -.00000071  00000+0 -22582-3 0  9991
2 48241  87.8947  57.6627 0001871  91.8091 268.3253 13.14497694163863
ONEWEB-0207             
1 48242U 21031AJ  24255.90680175  .00000198  00000+0  50068-3 0  9990
2 48242  87.8941  57.6161 0001741  85.7383 274.3945 13.14500058163788
